0 FENGYUN 1C DEB
1 38814U 99025EVE 13276.65778512  .00004555  00000-0  26327-2 0   283
2 38814 098.4353 092.2822 0140935 067.3667 024.3378 14.04523604206082
0 FENGYUN 1C DEB
1 38814U 99025EVE 13290.31697681  .00004693  00000-0  27110-2 0   294
2 38814 098.4366 104.9827 0140953 028.9028 326.9114 14.04547107208003
